{
    "links": {
        "self": "http://www.neowsapp.com/rest/v1/neo/54053935?api_key=iIulBulltgU6a56xZRHN4H3l9WmuAYTsLGpBGhQ2"
    },
    "id": "54053935",
    "neo_reference_id": "54053935",
    "name": "(2020 RZ3)",
    "designation": "2020 RZ3",
    "nasa_jpl_url": "http://ssd.jpl.nasa.gov/sbdb.cgi?sstr=54053935",
    "absolute_magnitude_h": 24.925,
    "estimated_diameter": {
        "kilometers": {
            "estimated_diameter_min": 0.0275140788,
            "estimated_diameter_max": 0.0615233505
        },
        "meters": {
            "estimated_diameter_min": 27.5140787903,
            "estimated_diameter_max": 61.5233505135
        },
        "miles": {
            "estimated_diameter_min": 0.0170964507,
            "estimated_diameter_max": 0.0382288258
        },
        "feet": {
            "estimated_diameter_min": 90.2692902585,
            "estimated_diameter_max": 201.8482692986
        }
    },
    "is_potentially_hazardous_asteroid": false,
    "close_approach_data": [
        {
            "close_approach_date": "2020-10-02",
            "close_approach_date_full": "2020-Oct-02 08:33",
            "epoch_date_close_approach": 1601627580000,
            "relative_velocity": {
                "kilometers_per_second": "13.2566876405",
                "kilometers_per_hour": "47724.0755058151",
                "miles_per_hour": "29653.8845830438"
            },
            "miss_distance": {
                "astronomical": "0.0400361123",
                "lunar": "15.5740476847",
                "kilometers": "5989317.123160801",
                "miles": "3721589.0879530138"
            },
            "orbiting_body": "Earth"
        }
    ],
    "orbital_data": {
        "orbit_id": "5",
        "orbit_determination_date": "2020-09-26 06:45:32",
        "first_observation_date": "2020-09-10",
        "last_observation_date": "2020-09-25",
        "data_arc_in_days": 15,
        "observations_used": 30,
        "orbit_uncertainty": "8",
        "minimum_orbit_intersection": ".0390243",
        "jupiter_tisserand_invariant": "3.146",
        "epoch_osculation": "2459107.5",
        "eccentricity": ".6461747507408427",
        "semi_major_axis": "2.4825991896935",
        "inclination": "4.931385905028547",
        "ascending_node_longitude": "164.2801661928949",
        "orbital_period": "1428.756900149978",
        "perihelion_distance": ".8784062771038843",
        "perihelion_argument": "254.1054896586094",
        "aphelion_distance": "4.086792102283114",
        "perihelion_time": "2459159.688309044866",
        "mean_anomaly": "346.8502533536814",
        "mean_motion": ".2519672870606682",
        "equinox": "J2000",
        "orbit_class": {
            "orbit_class_type": "APO",
            "orbit_class_description": "Near-Earth asteroid orbits which cross the Earth’s orbit similar to that of 1862 Apollo",
            "orbit_class_range": "a (semi-major axis) > 1.0 AU; q (perihelion) < 1.017 AU"
        }
    },
    "is_sentry_object": false
}